satname,norad_id,inclination_deg,eccentricity,mean_motion_rev_per_day,perigee_km,apogee_km,l1,l2
STARLINK-1169,45061,53.0537,0.0001281,15.06358615,546.4512465079388,548.225553305394,1 45061U 20006T   25274.46683404 -.00029202  00000+0 -19518-2 0  9991,2 45061  53.0537 281.4015 0001281  79.2947 280.8186 15.06358615312461
STARLINK-1171,45062,53.0541,0.0001417,15.06395453,546.2441700080608,548.2068177388246,1 45062U 20006U   25274.25305803 -.00003128  00000+0 -19120-3 0  9992,2 45062  53.0541 282.3563 0001417  99.4786 260.6363 15.06395453312432
STARLINK-1133,45064,53.0534,0.0001342,15.06396028,546.2943481627763,548.1531149831308,1 45064U 20006W   25274.66404312  .00000900  00000+0  79327-4 0  9993,2 45064  53.0534 260.5107 0001342  98.4348 261.6793 15.06396028312772
STARLINK-1150,45067,53.0388,0.0003548,16.12021519,238.9549515953422,243.65210659478726,1 45067U 20006Z   25274.90231214  .01244727  10375-2  11412-2 0  9998,2 45067  53.0388 197.6260 0003548 218.8383 141.2397 16.12021519313670
STARLINK-1167,45071,53.0539,0.0001615,15.0639544,546.1070876675767,548.3439797659676,1 45071U 20006AD  25274.68984291  .00000595  00000+0  58861-4 0  9992,2 45071  53.0539 260.3998 0001615  81.5314 278.5858 15.06395440312776
STARLINK-1168,45072,53.0532,0.0001604,15.06439695,545.979094756929,548.2007075468173,1 45072U 20006AE  25274.29542560  .00011286  00000+0  77453-3 0  9995,2 45072  53.0532 262.1707 0001604  75.5917 284.5250 15.06439695312716
STARLINK-1172,45074,53.0536,0.0001489,15.06420414,546.1178175906671,548.1801677592848,1 45074U 20006AG  25273.37763823  .00006706  00000+0  46841-3 0  9990,2 45074  53.0536 266.2879 0001489  85.9414 274.1745 15.06420414312572
STARLINK-1153,45080,53.0538,0.0001315,15.06395905,546.3134235661473,548.1347935376962,1 45080U 20006AN  25274.68248530  .00002481  00000+0  18542-3 0  9998,2 45080  53.0538 260.4318 0001315  75.0183 285.0952 15.06395905312775
STARLINK-1151,45081,53.0545,0.0001513,15.06395485,546.1775884670769,548.2732031280448,1 45081U 20006AP  25274.66773854 -.00001192  00000+0 -61132-4 0  9993,2 45081  53.0545 260.5720 0001513 100.8164 259.2995 15.06395485312771
STARLINK-1190,45083,53.0454,0.000779,15.76858775,334.11409770168484,344.57993780134166,1 45083U 20006AR  25274.91670139  .00213625  00000+0  12674-2 0  9994,2 45083  53.0454 226.4089 0007790  77.9527 302.3827 15.76858775  5980
STARLINK-1173,45084,53.0427,0.0005649,15.89428307,300.10998616006145,307.659334231751,1 45084U 20006AS  25274.91670139  .00429949  00000+0  13753-2 0  9992,2 45084  53.0427 189.4905 0005649  66.9223 231.5964 15.89428307  6005
STARLINK-1179,45085,53.0328,0.0002118,16.15311726,230.91168145561005,233.71186755648978,1 45085U 20006AT  25274.93505486  .01446977  16389-2  10678-2 0  9991,2 45085  53.0328 178.5133 0002118 201.3288 158.7660 16.15311726313945
STARLINK-1185,45087,53.0528,0.0001515,15.0639092,546.1901924476779,548.2885814929305,1 45087U 20006AV  25274.64377315  .00004568  00000+0  32541-3 0  9998,2 45087  53.0528 240.6016 0001515  79.8831 280.2329 15.06390920313059
STARLINK-1183,45088,53.0536,0.0001532,15.0638822,546.1866932466801,548.3086311071711,1 45088U 20006AW  25274.59953764 -.00000786  00000+0 -33910-4 0  9993,2 45088  53.0536 240.8024 0001532  80.8014 279.3148 15.06388220313041
STARLINK-1176,45090,53.0485,0.0002513,15.86662002,309.9678855388711,313.3301719969286,1 45090U 20006AY  25274.91670139  .00358586  00000+0  13274-2 0  9995,2 45090  53.0485 187.4154 0002513  56.6566 303.2507 15.86662002  5999
STARLINK-1142,45093,53.037,0.000555,15.53030767,404.11675337959423,411.64923557346356,1 45093U 20006BB  25274.91670139  .00132144  00000+0  20520-2 0  9990,2 45093  53.0370 183.3086 0005550 118.9303 173.6225 15.53030767  5761
STARLINK-1146,45094,53.0383,0.0004018,16.20619724,215.21952128965404,220.52007235157907,1 45094U 20006BC  25274.92287267  .02210450  11823-4  10602-2 0  9997,2 45094  53.0383 179.4466 0004018 198.6774 161.4117 16.20619724313936
STARLINK-1147,45095,53.0379,0.0003374,16.00404554,271.05336102870206,275.5417490664495,1 45095U 20006BD  25274.81714567  .00606619  17556-3  11347-2 0  9993,2 45095  53.0379 183.7529 0003374  75.7125 284.4279 16.00404554313867
STARLINK-1152,45096,53.0474,0.0007836,15.21874132,494.7980210137039,505.57773175997863,1 45096U 20006BE  25274.86213098  .00055857  00000+0  24185-2 0  9990,2 45096  53.0474 225.2706 0007836  78.2965 281.8910 15.21874132313284
STARLINK-1184,45098,53.0562,0.0001702,15.06407504,546.0098689443203,548.367249764724,1 45098U 20006BG  25274.61428306 -.00004816  00000+0 -30459-3 0  9998,2 45098  53.0562 240.7375 0001702  81.4240 278.6942 15.06407504313047
STARLINK-1193,45100,53.0535,0.0001414,15.06417996,546.177166852025,548.1356398264888,1 45100U 20006BJ  25274.61058169  .00019856  00000+0  13475-2 0  9994,2 45100  53.0535 240.7520 0001414 111.9798 248.1341 15.06417996313041
STARLINK-1143,45179,53.0548,0.0004416,15.35948598,455.0854640744665,461.1232324332441,1 45179U 20012B   25274.91670139  .00069232  00000+0  19425-2 0  9991,2 45179  53.0548   9.7115 0004416 276.3775 230.1230 15.35948598  5911
STARLINK-1202,45183,53.0545,0.0001475,15.06416351,546.139963410913,548.1829264521675,1 45183U 20012F   25274.67325527  .00020019  00000+0  13584-2 0  9997,2 45183  53.0545  40.4718 0001475  72.7936 287.3214 15.06416351310878
STARLINK-1216,45185,53.0561,0.000153,15.06390522,546.1810240216637,548.3001895693433,1 45185U 20012H   25274.59953067 -.00002106  00000+0 -12253-3 0  9998,2 45185  53.0561  40.8020 0001530  95.5221 264.5942 15.06390522310809
STARLINK-1225,45187,53.0535,0.0001577,15.06403152,546.1097715849528,548.2940234732332,1 45187U 20012K   25274.61796326  .00001468  00000+0  11742-3 0  9996,2 45187  53.0535  40.7193 0001577  73.3638 286.7524 15.06403152310850
STARLINK-1230,45189,53.0542,0.0001773,15.06400135,545.9832799567876,548.4390084087163,1 45189U 20012M   25274.62164806 -.00002372  00000+0 -14041-3 0  9993,2 45189  53.0542  40.7011 0001773  96.5528 263.5663 15.06400135308089
STARLINK-1234,45190,53.0545,0.0001323,15.06398337,546.3004305099212,548.1328790869802,1 45190U 20012N   25274.50738228  .00019991  00000+0  13572-2 0  9997,2 45190  53.0545   1.2169 0001323  90.0997 270.0143 15.06398337311305
STARLINK-1269,45197,53.0557,0.0001331,15.06415647,546.2418450417526,548.0853600621513,1 45197U 20012V   25274.63270439  .00008520  00000+0  58991-3 0  9994,2 45197  53.0557  40.6551 0001331 102.0134 258.1004 15.06415647310837
STARLINK-1154,45198,53.0556,0.0001503,15.06425832,546.091519721147,548.1732556990937,1 45198U 20012W   25274.68983691  .00014079  00000+0  96151-3 0  9997,2 45198  53.0556  20.3980 0001503  95.7458 264.3702 15.06425832311096
STARLINK-1199,45201,53.0558,0.0001521,15.06391274,546.1849524171676,548.2916515840361,1 45201U 20012Z   25274.70089959  .00020815  00000+0  14125-2 0  9994,2 45201  53.0558  20.3460 0001521  91.9161 268.2003 15.06391274311151
STARLINK-1208,45205,53.0295,0.000308,16.28872466,193.54696561046512,197.59637014987857,1 45205U 20012AD  25274.83663723  .05169503  12072-4  12279-2 0  9997,2 45205  53.0295 317.5837 0003080 298.5687  61.5044 16.28872466312064
STARLINK-1209,45206,53.0556,0.0001551,15.0639618,546.1491423356265,548.2973890900494,1 45206U 20012AE  25274.51106517  .00015676  00000+0  10690-2 0  9990,2 45206  53.0556   1.2027 0001551  97.4716 262.6449 15.06396180310456
STARLINK-1210,45207,53.0284,0.001281,15.49329793,409.97874020841846,427.3921993760259,1 45207U 20012AF  25274.91670139  .00122116  00000+0  21615-2 0  9998,2 45207  53.0284 329.0362 0012810 304.4578 169.2083 15.49329793  5905
STARLINK-1231,45212,53.0524,0.0002518,15.10033461,534.3568546439919,537.8388633189761,1 45212U 20012AL  25274.67641389  .00051361  00000+0  31178-2 0  9990,2 45212  53.0524  19.7723 0002518 263.3505  96.7199 15.10033461311116
STARLINK-1271,45217,53.0549,0.0001396,15.06412479,546.2065385450715,548.1400851841445,1 45217U 20012AR  25274.68614624  .00004528  00000+0  32258-3 0  9992,2 45217  53.0549  20.4119 0001396  85.1062 275.0087 15.06412479311154
STARLINK-1191,45222,53.0563,0.0002028,15.06393758,545.8262242680285,548.6351534026207,1 45222U 20012AW  25274.56268341  .00001571  00000+0  12435-3 0  9996,2 45222  53.0563   0.9669 0002028  85.9441 274.1780 15.06393758311418
STARLINK-1212,45223,53.0563,0.000156,15.0641376,546.0890380449009,548.2497336372844,1 45223U 20012AX  25274.51484162  .00005978  00000+0  41975-3 0  9999,2 45223  53.0563   1.8390 0001560  82.5562 277.5605 15.06413760311405
STARLINK-1215,45225,53.0551,0.0001241,15.06409327,546.3235399655578,548.0424043826515,1 45225U 20012AZ  25274.53687205  .00003339  00000+0  24286-3 0  9991,2 45225  53.0551   1.0841 0001241  95.0313 265.0817 15.06409327311362
STARLINK-1217,45226,53.0418,0.0001995,15.96049576,284.06208028768197,286.720828140913,1 45226U 20012BA  25274.91670139  .00498782  11326-3  11917-2 0  9995,2 45226  53.0418 303.7470 0001995  11.8746 178.6868 15.96049576  6065
STARLINK-1221,45227,53.0693,0.0002151,15.35526803,457.88544764243306,460.82693721381565,1 45227U 20012BB  25274.39149022  .00026735  00000+0  77144-3 0  9993,2 45227  53.0693 300.8263 0002151 220.3497 139.7345 15.35526803312181
STARLINK-1222,45228,53.0557,0.000153,15.06412115,546.1148548086039,548.2340001054063,1 45228U 20012BC  25274.43735163  .00014955  00000+0  10204-2 0  9990,2 45228  53.0557   1.5298 0001530  97.7689 262.3474 15.06412115311287
STARLINK-1226,45229,53.0561,0.0001527,15.06364598,546.262544801044,548.3775793878076,1 45229U 20012BD  25274.53317907 -.00010612  00000+0 -69522-3 0  9990,2 45229  53.0561   1.0989 0001527  80.8873 279.2288 15.06364598311303
STARLINK-1227,45230,53.0557,0.0001246,15.06393872,546.3674386688581,548.093240209846,1 45230U 20012BE  25274.52950603  .00008568  00000+0  59350-3 0  9990,2 45230  53.0557   1.1178 0001246  88.2484 271.8648 15.06393872311427
